HELIOS 2A               
1 28492U 04049A   22277.48081289  .00001816  00000+0  17874-3 0  9997
2 28492  98.2423 225.6484 0015773  84.8780 275.4259 14.93377391951392
CFESAT                  
1 30777U 07006F   22277.49105625  .00260409  00000+0  16677-2 0  9998
2 30777  35.4160 291.8074 0003280 174.1318 185.9459 15.74550011866161
SPIRALE A               
1 33751U 09008C   22276.68465308  .00000245  00000+0  91397-3 0  9997
2 33751   1.9742 152.0544 5447803  90.6773 328.8738  4.58869826199787
SPIRALE B               
1 33752U 09008D   22277.13039388  .00005441  00000+0  16071-2 0  9992
2 33752   2.2199  56.4692 6851092 268.7703  18.9206  2.83121018128206
SAPPHIRE                
1 39088U 13009C   22276.82339266  .00000149  00000+0  68229-4 0  9993
2 39088  98.4231 109.8600 0010628 319.4389  40.6004 14.34326286502678
